STARLINK-31445          
1 59312U 24056S   26047.25108303  .00004194  00000+0  16186-3 0  9990
2 59312  43.0039 358.8712 0000931 276.0249  84.0496 15.27578372107790
STARLINK-31495          
1 59313U 24056T   26046.22982148  .00002256  00000+0  91462-4 0  9992
2 59313  43.0039 350.2557 0001117 264.8595  95.2129 15.27582544107805
STARLINK-31477          
1 59314U 24056U   26047.84779583 -.00006007  00000+0 -20884-3 0  9998
2 59314  42.9985 340.9056 0001084  31.9255 328.1662 15.27597564108059
STARLINK-31446          
1 59315U 24056V   26047.21735329  .00001047  00000+0  47519-4 0  9992
2 59315  42.9970 351.6953 0000356 142.1012 217.9864 15.27591443107874
STARLINK-31479          
1 59316U 24056W   26047.21957896  .00001490  00000+0  63650-4 0  9994
2 59316  43.0075 356.0272 0001736 268.1348  91.9305 15.27589175107824
STARLINK-31349          
1 59317U 24056X   26047.23277618  .00004050  00000+0  15650-3 0  9995
2 59317  43.0024 351.8141 0001118 355.0077   5.0764 15.27601413107944
STARLINK-31464          
1 59318U 24056Y   26047.22506532  .00001094  00000+0  49240-4 0  9993
2 59318  43.0029 351.7538 0000412 310.5318  49.5498 15.27591290107879
STARLINK-31402          
1 59320U 24057A   26047.59152005  .00001485  00000+0  63476-4 0  9990
2 59320  43.0001 258.6182 0001550 267.5643  92.5031 15.27579103107148
STARLINK-31578          
1 59321U 24057B   26047.76254697 -.00001827  00000+0 -56917-4 0  9994
2 59321  43.0004 304.8215 0000788 284.9772  75.0992 15.27573874106646
STARLINK-31530          
1 59322U 24057C   26047.83337963  .00088143  00000+0  26161-2 0  9991
2 59322  43.0011 304.4766 0008095 230.4771 138.5708 15.33784279  5891
STARLINK-31565          
1 59323U 24057D   26047.78614141 -.00001559  00000+0 -47148-4 0  9990
2 59323  43.0034 312.7866 0000963 262.0333  98.0409 15.27580736106559
STARLINK-31570          
1 59324U 24057E   26047.76012104 -.00000568  00000+0 -11123-4 0  9993
2 59324  43.0031 305.6648 0000988 265.9566  94.1172 15.27575720106633
STARLINK-31611          
1 59325U 24057F   26047.76141115  .00000940  00000+0  43736-4 0  9996
2 59325  43.0042 305.6784 0002683 296.0503  64.0072 15.27561623106639
STARLINK-31632          
1 59326U 24057G   26047.79593152 -.00002038  00000+0 -64574-4 0  9997
2 59326  43.0036 316.3192 0001339 275.5542  84.5157 15.27575186106514
STARLINK-31599          
1 59327U 24057H   26047.05998909  .00000877  00000+0  41397-4 0  9991
2 59327  43.0024 309.0132 0001480 259.8195 100.2489 15.27579438106531
STARLINK-31614          
1 59328U 24057J   26047.14978893  .00000171  00000+0  15771-4 0  9996
2 59328  43.0061 308.8237 0002163 264.9173  95.1432 15.27576829106540
STARLINK-31493          
1 59329U 24057K   26047.06770252  .00000614  00000+0  31815-4 0  9996
2 59329  43.0014 309.0726 0000922 284.5823  75.4926 15.27579182106539
