[{"OBJECT_NAME":"STARLINK-31445","OBJECT_ID":"2024-056S","EPOCH":"2026-02-16T06:01:33.573792","MEAN_MOTION":15.27578372,"ECCENTRICITY":9.31e-5,"INCLINATION":43.0039,"RA_OF_ASC_NODE":358.8712,"ARG_OF_PERICENTER":276.0249,"MEAN_ANOMALY":84.0496,"EPHEMERIS_TYPE":0,"CLASSIFICATION_TYPE":"U","NORAD_CAT_ID":59312,"ELEMENT_SET_NO":999,"REV_AT_EPOCH":10779,"BSTAR":0.00016186,"MEAN_MOTION_DOT":4.194e-5,"MEAN_MOTION_DDOT":0},{"OBJECT_NAME":"STARLINK-31495","OBJECT_ID":"2024-056T","EPOCH":"2026-02-15T05:30:56.575872","MEAN_MOTION":15.27582544,"ECCENTRICITY":0.0001117,"INCLINATION":43.0039,"RA_OF_ASC_NODE":350.2557,"ARG_OF_PERICENTER":264.8595,"MEAN_ANOMALY":95.2129,"EPHEMERIS_TYPE":0,"CLASSIFICATION_TYPE":"U","NORAD_CAT_ID":59313,"ELEMENT_SET_NO":999,"REV_AT_EPOCH":10780,"BSTAR":9.1462e-5,"MEAN_MOTION_DOT":2.256e-5,"MEAN_MOTION_DDOT":0},{"OBJECT_NAME":"STARLINK-31477","OBJECT_ID":"2024-056U","EPOCH":"2026-02-16T20:20:49.559712","MEAN_MOTION":15.27597564,"ECCENTRICITY":0.0001084,"INCLINATION":42.9985,"RA_OF_ASC_NODE":340.9056,"ARG_OF_PERICENTER":31.9255,"MEAN_ANOMALY":328.1662,"EPHEMERIS_TYPE":0,"CLASSIFICATION_TYPE":"U","NORAD_CAT_ID":59314,"ELEMENT_SET_NO":999,"REV_AT_EPOCH":10805,"BSTAR":-0.00020884,"MEAN_MOTION_DOT":-6.007e-5,"MEAN_MOTION_DDOT":0},{"OBJECT_NAME":"STARLINK-31446","OBJECT_ID":"2024-056V","EPOCH":"2026-02-16T05:12:59.324256","MEAN_MOTION":15.27591443,"ECCENTRICITY":3.56e-5,"INCLINATION":42.997,"RA_OF_ASC_NODE":351.6953,"ARG_OF_PERICENTER":142.1012,"MEAN_ANOMALY":217.9864,"EPHEMERIS_TYPE":0,"CLASSIFICATION_TYPE":"U","NORAD_CAT_ID":59315,"ELEMENT_SET_NO":999,"REV_AT_EPOCH":10787,"BSTAR":4.7519e-5,"MEAN_MOTION_DOT":1.047e-5,"MEAN_MOTION_DDOT":0},{"OBJECT_NAME":"STARLINK-31479","OBJECT_ID":"2024-056W","EPOCH":"2026-02-16T05:16:11.622144","MEAN_MOTION":15.27589175,"ECCENTRICITY":0.0001736,"INCLINATION":43.0075,"RA_OF_ASC_NODE":356.0272,"ARG_OF_PERICENTER":268.1348,"MEAN_ANOMALY":91.9305,"EPHEMERIS_TYPE":0,"CLASSIFICATION_TYPE":"U","NORAD_CAT_ID":59316,"ELEMENT_SET_NO":999,"REV_AT_EPOCH":10782,"BSTAR":6.365e-5,"MEAN_MOTION_DOT":1.49e-5,"MEAN_MOTION_DDOT":0},{"OBJECT_NAME":"STARLINK-31349","OBJECT_ID":"2024-056X","EPOCH":"2026-02-16T05:35:11.861952","MEAN_MOTION":15.27601413,"ECCENTRICITY":0.0001118,"INCLINATION":43.0024,"RA_OF_ASC_NODE":351.8141,"ARG_OF_PERICENTER":355.0077,"MEAN_ANOMALY":5.0764,"EPHEMERIS_TYPE":0,"CLASSIFICATION_TYPE":"U","NORAD_CAT_ID":59317,"ELEMENT_SET_NO":999,"REV_AT_EPOCH":10794,"BSTAR":0.0001565,"MEAN_MOTION_DOT":4.05e-5,"MEAN_MOTION_DDOT":0},{"OBJECT_NAME":"STARLINK-31464","OBJECT_ID":"2024-056Y","EPOCH":"2026-02-16T05:24:05.643648","MEAN_MOTION":15.2759129,"ECCENTRICITY":4.12e-5,"INCLINATION":43.0029,"RA_OF_ASC_NODE":351.7538,"ARG_OF_PERICENTER":310.5318,"MEAN_ANOMALY":49.5498,"EPHEMERIS_TYPE":0,"CLASSIFICATION_TYPE":"U","NORAD_CAT_ID":59318,"ELEMENT_SET_NO":999,"REV_AT_EPOCH":10787,"BSTAR":4.924e-5,"MEAN_MOTION_DOT":1.094e-5,"MEAN_MOTION_DDOT":0},{"OBJECT_NAME":"STARLINK-31402","OBJECT_ID":"2024-057A","EPOCH":"2026-02-16T14:11:47.332320","MEAN_MOTION":15.27579103,"ECCENTRICITY":0.000155,"INCLINATION":43.0001,"RA_OF_ASC_NODE":258.6182,"ARG_OF_PERICENTER":267.5643,"MEAN_ANOMALY":92.5031,"EPHEMERIS_TYPE":0,"CLASSIFICATION_TYPE":"U","NORAD_CAT_ID":59320,"ELEMENT_SET_NO":999,"REV_AT_EPOCH":10714,"BSTAR":6.3476e-5,"MEAN_MOTION_DOT":1.485e-5,"MEAN_MOTION_DDOT":0},{"OBJECT_NAME":"STARLINK-31578","OBJECT_ID":"2024-057B","EPOCH":"2026-02-16T18:18:04.058208","MEAN_MOTION":15.27573874,"ECCENTRICITY":7.88e-5,"INCLINATION":43.0004,"RA_OF_ASC_NODE":304.8215,"ARG_OF_PERICENTER":284.9772,"MEAN_ANOMALY":75.0992,"EPHEMERIS_TYPE":0,"CLASSIFICATION_TYPE":"U","NORAD_CAT_ID":59321,"ELEMENT_SET_NO":999,"REV_AT_EPOCH":10664,"BSTAR":-5.6917e-5,"MEAN_MOTION_DOT":-1.827e-5,"MEAN_MOTION_DDOT":0},{"OBJECT_NAME":"STARLINK-31530","OBJECT_ID":"2024-057C","EPOCH":"2026-02-16T20:00:04.000032","MEAN_MOTION":15.33784279,"ECCENTRICITY":0.0008095,"INCLINATION":43.0011,"RA_OF_ASC_NODE":304.4766,"ARG_OF_PERICENTER":230.4771,"MEAN_ANOMALY":138.5708,"EPHEMERIS_TYPE":0,"CLASSIFICATION_TYPE":"U","NORAD_CAT_ID":59322,"ELEMENT_SET_NO":999,"REV_AT_EPOCH":589,"BSTAR":0.0026161,"MEAN_MOTION_DOT":0.00088143,"MEAN_MOTION_DDOT":0},{"OBJECT_NAME":"STARLINK-31565","OBJECT_ID":"2024-057D","EPOCH":"2026-02-16T18:52:02.617824","MEAN_MOTION":15.27580736,"ECCENTRICITY":9.63e-5,"INCLINATION":43.0034,"RA_OF_ASC_NODE":312.7866,"ARG_OF_PERICENTER":262.0333,"MEAN_ANOMALY":98.0409,"EPHEMERIS_TYPE":0,"CLASSIFICATION_TYPE":"U","NORAD_CAT_ID":59323,"ELEMENT_SET_NO":999,"REV_AT_EPOCH":10655,"BSTAR":-4.7148e-5,"MEAN_MOTION_DOT":-1.559e-5,"MEAN_MOTION_DDOT":0},{"OBJECT_NAME":"STARLINK-31570","OBJECT_ID":"2024-057E","EPOCH":"2026-02-16T18:14:34.457856","MEAN_MOTION":15.2757572,"ECCENTRICITY":9.88e-5,"INCLINATION":43.0031,"RA_OF_ASC_NODE":305.6648,"ARG_OF_PERICENTER":265.9566,"MEAN_ANOMALY":94.1172,"EPHEMERIS_TYPE":0,"CLASSIFICATION_TYPE":"U","NORAD_CAT_ID":59324,"ELEMENT_SET_NO":999,"REV_AT_EPOCH":10663,"BSTAR":-1.1123e-5,"MEAN_MOTION_DOT":-5.68e-6,"MEAN_MOTION_DDOT":0},{"OBJECT_NAME":"STARLINK-31611","OBJECT_ID":"2024-057F","EPOCH":"2026-02-16T18:16:25.923360","MEAN_MOTION":15.27561623,"ECCENTRICITY":0.0002683,"INCLINATION":43.0042,"RA_OF_ASC_NODE":305.6784,"ARG_OF_PERICENTER":296.0503,"MEAN_ANOMALY":64.0072,"EPHEMERIS_TYPE":0,"CLASSIFICATION_TYPE":"U","NORAD_CAT_ID":59325,"ELEMENT_SET_NO":999,"REV_AT_EPOCH":10663,"BSTAR":4.3736e-5,"MEAN_MOTION_DOT":9.4e-6,"MEAN_MOTION_DDOT":0},{"OBJECT_NAME":"STARLINK-31632","OBJECT_ID":"2024-057G","EPOCH":"2026-02-16T19:06:08.483328","MEAN_MOTION":15.27575186,"ECCENTRICITY":0.0001339,"INCLINATION":43.0036,"RA_OF_ASC_NODE":316.3192,"ARG_OF_PERICENTER":275.5542,"MEAN_ANOMALY":84.5157,"EPHEMERIS_TYPE":0,"CLASSIFICATION_TYPE":"U","NORAD_CAT_ID":59326,"ELEMENT_SET_NO":999,"REV_AT_EPOCH":10651,"BSTAR":-6.4574e-5,"MEAN_MOTION_DOT":-2.038e-5,"MEAN_MOTION_DDOT":0},{"OBJECT_NAME":"STARLINK-31599","OBJECT_ID":"2024-057H","EPOCH":"2026-02-16T01:26:23.057376","MEAN_MOTION":15.27579438,"ECCENTRICITY":0.000148,"INCLINATION":43.0024,"RA_OF_ASC_NODE":309.0132,"ARG_OF_PERICENTER":259.8195,"MEAN_ANOMALY":100.2489,"EPHEMERIS_TYPE":0,"CLASSIFICATION_TYPE":"U","NORAD_CAT_ID":59327,"ELEMENT_SET_NO":999,"REV_AT_EPOCH":10653,"BSTAR":4.1396758e-5,"MEAN_MOTION_DOT":8.77e-6,"MEAN_MOTION_DDOT":0},{"OBJECT_NAME":"STARLINK-31614","OBJECT_ID":"2024-057J","EPOCH":"2026-02-16T03:35:41.763552","MEAN_MOTION":15.27576829,"ECCENTRICITY":0.00021639,"INCLINATION":43.0061,"RA_OF_ASC_NODE":308.8237,"ARG_OF_PERICENTER":264.9173,"MEAN_ANOMALY":95.1432,"EPHEMERIS_TYPE":0,"CLASSIFICATION_TYPE":"U","NORAD_CAT_ID":59328,"ELEMENT_SET_NO":999,"REV_AT_EPOCH":10654,"BSTAR":1.5771262e-5,"MEAN_MOTION_DOT":1.71e-6,"MEAN_MOTION_DDOT":0},{"OBJECT_NAME":"STARLINK-31493","OBJECT_ID":"2024-057K","EPOCH":"2026-02-16T01:37:29.497728","MEAN_MOTION":15.27579182,"ECCENTRICITY":9.229e-5,"INCLINATION":43.0014,"RA_OF_ASC_NODE":309.0726,"ARG_OF_PERICENTER":284.5823,"MEAN_ANOMALY":75.4926,"EPHEMERIS_TYPE":0,"CLASSIFICATION_TYPE":"U","NORAD_CAT_ID":59329,"ELEMENT_SET_NO":999,"REV_AT_EPOCH":10653,"BSTAR":3.1814822e-5,"MEAN_MOTION_DOT":6.14e-6,"MEAN_MOTION_DDOT":0}]
